{
  "type": "FeatureCollection",
  "features": [
    {
      "type": "Feature",
      "properties": {
        "norad_id": 37967,
        "name": "COSMOS 2251 DEB",
        "group": "cosmos-2251-debris",
        "lat": 67.81446517771235,
        "lon": -114.00201593913624,
        "alt_km": 832.1220754014448,
        "timestamp": "2025-12-27T03:58:44.544464+00:00",
        "meta_object_name": "COSMOS 2251 DEB",
        "meta_object_id": "1993-036BPS",
        "meta_epoch": "2025-12-25T14:48:50.438880",
        "meta_mean_motion": 14.4066325,
        "meta_eccentricity": 0.0151034,
        "meta_inclination": 74.0157,
        "meta_ra_of_asc_node": 113.525,
        "meta_arg_of_pericenter": 249.5941,
        "meta_mean_anomaly": 108.8939,
        "meta_ephemeris_type": 0,
        "meta_classification_type": "U",
        "meta_norad_cat_id": 37967,
        "meta_element_set_no": 999,
        "meta_rev_at_epoch": 64921,
        "meta_bstar": 0.0020469,
        "meta_mean_motion_dot": 7.459e-05,
        "meta_mean_motion_ddot": 0,
        "tle_line1": "1 37967U 93036BPS 25359.61725045  .00007459  00000+0  20469-2 0  9994",
        "tle_line2": "2 37967  74.0157 113.5250 0151034 249.5941 108.8939 14.40663250649214"
      },
      "geometry": {
        "type": "Point",
        "coordinates": [
          -114.00201593913624,
          67.81446517771235
        ]
      }
    },
    {
      "type": "Feature",
      "properties": {
        "norad_id": 37968,
        "name": "COSMOS 2251 DEB",
        "group": "cosmos-2251-debris",
        "lat": 36.3152054110839,
        "lon": 49.56112068735405,
        "alt_km": 608.3982692391501,
        "timestamp": "2025-12-27T03:58:44.544473+00:00",
        "meta_object_name": "COSMOS 2251 DEB",
        "meta_object_id": "1993-036BPT",
        "meta_epoch": "2025-12-26T09:45:16.750368",
        "meta_mean_motion": 15.0094224,
        "meta_eccentricity": 0.0080595,
        "meta_inclination": 73.9991,
        "meta_ra_of_asc_node": 243.2853,
        "meta_arg_of_pericenter": 355.6401,
        "meta_mean_anomaly": 4.4073,
        "meta_ephemeris_type": 0,
        "meta_classification_type": "U",
        "meta_norad_cat_id": 37968,
        "meta_element_set_no": 999,
        "meta_rev_at_epoch": 60424,
        "meta_bstar": 0.00078163,
        "meta_mean_motion_dot": 0.00010652,
        "meta_mean_motion_ddot": 0,
        "tle_line1": "1 37968U 93036BPT 25360.40644387  .00010652  00000+0  78163-3 0  9997",
        "tle_line2": "2 37968  73.9991 243.2853 0080595 355.6401   4.4073 15.00942240604242"
      },
      "geometry": {
        "type": "Point",
        "coordinates": [
          49.56112068735405,
          36.3152054110839
        ]
      }
    },
    {
      "type": "Feature",
      "properties": {
        "norad_id": 37971,
        "name": "COSMOS 2251 DEB",
        "group": "cosmos-2251-debris",
        "lat": -55.64463412505328,
        "lon": -140.5316465418624,
        "alt_km": 734.6939275057839,
        "timestamp": "2025-12-27T03:58:44.544483+00:00",
        "meta_object_name": "COSMOS 2251 DEB",
        "meta_object_id": "1993-036BPW",
        "meta_epoch": "2025-12-21T19:16:34.897152",
        "meta_mean_motion": 14.48757325,
        "meta_eccentricity": 0.00659406,
        "meta_inclination": 73.9924,
        "meta_ra_of_asc_node": 24.7096,
        "meta_arg_of_pericenter": 161.9609,
        "meta_mean_anomaly": 198.3914,
        "meta_ephemeris_type": 0,
        "meta_classification_type": "U",
        "meta_norad_cat_id": 37971,
        "meta_element_set_no": 999,
        "meta_rev_at_epoch": 60809,
        "meta_bstar": 0.0013046337,
        "meta_mean_motion_dot": 5.035e-05,
        "meta_mean_motion_ddot": 0,
        "tle_line1": "1 37971U 93036BPW 25355.80318168  .00005035  00000+0  13046-2 0  9991",
        "tle_line2": "2 37971  73.9924  24.7096 0065940 161.9609 198.3914 14.48757325608091"
      },
      "geometry": {
        "type": "Point",
        "coordinates": [
          -140.5316465418624,
          -55.64463412505328
        ]
      }
    },
    {
      "type": "Feature",
      "properties": {
        "norad_id": 37975,
        "name": "COSMOS 2251 DEB",
        "group": "cosmos-2251-debris",
        "lat": 54.67696744872829,
        "lon": 91.8691505933672,
        "alt_km": 696.0166094918868,
        "timestamp": "2025-12-27T03:58:44.544494+00:00",
        "meta_object_name": "COSMOS 2251 DEB",
        "meta_object_id": "1993-036BQA",
        "meta_epoch": "2025-12-24T13:38:18.210912",
        "meta_mean_motion": 14.76642504,
        "meta_eccentricity": 0.00942439,
        "meta_inclination": 74.0025,
        "meta_ra_of_asc_node": 300.8495,
        "meta_arg_of_pericenter": 287.7537,
        "meta_mean_anomaly": 71.3369,
        "meta_ephemeris_type": 0,
        "meta_classification_type": "U",
        "meta_norad_cat_id": 37975,
        "meta_element_set_no": 999,
        "meta_rev_at_epoch": 69920,
        "meta_bstar": 0.0036103843,
        "meta_mean_motion_dot": 0.00027223,
        "meta_mean_motion_ddot": 0,
        "tle_line1": "1 37975U 93036BQA 25358.56826633  .00027223  00000+0  36104-2 0  9995",
        "tle_line2": "2 37975  74.0025 300.8495 0094243 287.7537  71.3369 14.76642504699205"
      },
      "geometry": {
        "type": "Point",
        "coordinates": [
          91.8691505933672,
          54.67696744872829
        ]
      }
    },
    {
      "type": "Feature",
      "properties": {
        "norad_id": 37985,
        "name": "COSMOS 2251 DEB",
        "group": "cosmos-2251-debris",
        "lat": -43.19641101444627,
        "lon": 74.86329436386173,
        "alt_km": 790.143256923071,
        "timestamp": "2025-12-27T03:58:44.544504+00:00",
        "meta_object_name": "COSMOS 2251 DEB",
        "meta_object_id": "1993-036BQL",
        "meta_epoch": "2025-12-26T08:32:00.813408",
        "meta_mean_motion": 14.35487039,
        "meta_eccentricity": 0.0021388,
        "meta_inclination": 74.0244,
        "meta_ra_of_asc_node": 240.7464,
        "meta_arg_of_pericenter": 359.933,
        "meta_mean_anomaly": 0.1816,
        "meta_ephemeris_type": 0,
        "meta_classification_type": "U",
        "meta_norad_cat_id": 37985,
        "meta_element_set_no": 999,
        "meta_rev_at_epoch": 65112,
        "meta_bstar": 4.6601e-05,
        "meta_mean_motion_dot": 1.08e-06,
        "meta_mean_motion_ddot": 0,
        "tle_line1": "1 37985U 93036BQL 25360.35556497  .00000108  00000+0  46601-4 0  9992",
        "tle_line2": "2 37985  74.0244 240.7464 0021388 359.9330   0.1816 14.35487039651121"
      },
      "geometry": {
        "type": "Point",
        "coordinates": [
          74.86329436386173,
          -43.19641101444627
        ]
      }
    },
    {
      "type": "Feature",
      "properties": {
        "norad_id": 37988,
        "name": "COSMOS 2251 DEB",
        "group": "cosmos-2251-debris",
        "lat": 16.790683805816045,
        "lon": 171.2036667929628,
        "alt_km": 694.7668898501361,
        "timestamp": "2025-12-27T03:58:44.544513+00:00",
        "meta_object_name": "COSMOS 2251 DEB",
        "meta_object_id": "1993-036BQP",
        "meta_epoch": "2025-12-19T02:22:34.688640",
        "meta_mean_motion": 14.6891967,
        "meta_eccentricity": 0.00635463,
        "meta_inclination": 74.062,
        "meta_ra_of_asc_node": 11.7337,
        "meta_arg_of_pericenter": 47.3595,
        "meta_mean_anomaly": 313.2907,
        "meta_ephemeris_type": 0,
        "meta_classification_type": "U",
        "meta_norad_cat_id": 37988,
        "meta_element_set_no": 999,
        "meta_rev_at_epoch": 23489,
        "meta_bstar": 0.00064166354,
        "meta_mean_motion_dot": 3.842e-05,
        "meta_mean_motion_ddot": 0,
        "tle_line1": "1 37988U 93036BQP 25353.09901260  .00003842  00000+0  64166-3 0  9993",
        "tle_line2": "2 37988  74.0620  11.7337 0063546  47.3595 313.2907 14.68919670234897"
      },
      "geometry": {
        "type": "Point",
        "coordinates": [
          171.2036667929628,
          16.790683805816045
        ]
      }
    },
    {
      "type": "Feature",
      "properties": {
        "norad_id": 37993,
        "name": "COSMOS 2251 DEB",
        "group": "cosmos-2251-debris",
        "lat": -15.463484155932036,
        "lon": -36.08357951075473,
        "alt_km": 683.8689358889778,
        "timestamp": "2025-12-27T03:58:44.544522+00:00",
        "meta_object_name": "COSMOS 2251 DEB",
        "meta_object_id": "1993-036BQU",
        "meta_epoch": "2025-12-17T04:37:52.855104",
        "meta_mean_motion": 14.59966404,
        "meta_eccentricity": 0.00218755,
        "meta_inclination": 74.021,
        "meta_ra_of_asc_node": 158.4097,
        "meta_arg_of_pericenter": 246.7183,
        "meta_mean_anomaly": 113.168,
        "meta_ephemeris_type": 0,
        "meta_classification_type": "U",
        "meta_norad_cat_id": 37993,
        "meta_element_set_no": 999,
        "meta_rev_at_epoch": 65382,
        "meta_bstar": 0.0010496489,
        "meta_mean_motion_dot": 5.024e-05,
        "meta_mean_motion_ddot": 0,
        "tle_line1": "1 37993U 93036BQU 25351.19297286  .00005024  00000+0  10496-2 0  9994",
        "tle_line2": "2 37993  74.0210 158.4097 0021875 246.7183 113.1680 14.59966404653827"
      },
      "geometry": {
        "type": "Point",
        "coordinates": [
          -36.08357951075473,
          -15.463484155932036
        ]
      }
    }
  ]
}